{
"type": "FeatureCollection",
"name": "sindh_boundary",
"crs": { "type": "name", "properties": { "name": "urn:ogc:def:crs:OGC:1.3:CRS84" } },
"features": [
{ "type": "Feature", "properties": { "shapeName": "Sindh", "shapeISO": "PK-SD", "shapeID": "70912109B8393927546319", "shapeGroup": "PAK", "shapeType": "ADM1" }, "geometry": { "type": "Polygon", "coordinates": [ [ [ 66.68992751384377, 24.914246073097843 ], [ 66.720326701616045, 24.910649912663416 ], [ 66.749053529896571, 24.920248473088634 ], [ 66.770220666050932, 24.932588382048266 ], [ 66.797435555906247, 24.946297942296269 ], [ 66.824650445761506, 24.94766881396464 ], [ 66.848841459665664, 24.955893727413638 ], [ 66.856401150892452, 24.975083052041271 ], [ 66.868496658294191, 24.987417467042519 ], [ 66.898735424999927, 24.991528663816837 ], [ 66.935021944507184, 24.991528663816837 ], [ 66.96526071121292, 24.994269384624431 ], [ 66.986427848266658, 25.00797207495134 ], [ 67.004571108469918, 25.028523242953327 ], [ 67.013642738121916, 25.061397954052381 ], [ 67.015154676547127, 25.097002273036537 ], [ 67.025738244624335, 25.124383162453057 ], [ 67.048417319203963, 25.149020716732764 ], [ 67.059000888180492, 25.158600645903164 ], [ 67.078656085909699, 25.173653298660838 ], [ 67.098311284538227, 25.187335917019027 ], [ 67.122502298442384, 25.199648958732496 ], [ 67.136109742470694, 25.22837454864657 ], [ 67.149717188297643, 25.24068343908948 ], [ 67.157276879524431, 25.280336937599657 ], [ 67.173908201302481, 25.298108439652822 ], [ 67.18449176937969, 25.356872531642068 ], [ 67.1860037078049, 25.384194943541843 ], [ 67.198099215206696, 25.406048422496724 ], [ 67.211706659235006, 25.427897944434619 ], [ 67.219266351361057, 25.448378272839079 ], [ 67.237409611564374, 25.470220118163979 ], [ 67.257064810192901, 25.482504413048275 ], [ 67.275208069496841, 25.492057998377959 ], [ 67.28579163847337, 25.502975449657299 ], [ 67.290327452849738, 25.522078603045145 ], [ 67.299399082501736, 25.528900420318166 ], [ 67.331149787632626, 25.535721850882737 ], [ 67.340221418183944, 25.554819790900694 ], [ 67.347781109410732, 25.590279317236764 ], [ 67.365924369614049, 25.610731958213364 ], [ 67.384067629817309, 25.627091552533159 ], [ 67.396163136319728, 25.640722834890994 ], [ 67.405234766871047, 25.662529649823512 ], [ 67.412794458097835, 25.680244752693227 ], [ 67.427913841450675, 25.691145044008636 ], [ 67.440009347953094, 25.704769007683581 ], [ 67.4566406697312, 25.721115704825991 ], [ 67.459664546581621, 25.764695910487944 ], [ 67.455128731305933, 25.81234344939071 ], [ 67.449080977605092, 25.853168948887912 ], [ 67.459664546581621, 25.883098694149453 ], [ 67.461176485006831, 25.948373623244152 ], [ 67.462688423432041, 25.990511129285267 ], [ 67.459664546581621, 26.025840619948724 ], [ 67.438497409527884, 26.050293269119152 ], [ 67.420354149324567, 26.076098865570259 ], [ 67.399187013170206, 26.099183263696716 ], [ 67.38709150576841, 26.138552015263372 ], [ 67.365924369614049, 26.18062117822484 ], [ 67.349293047835943, 26.228100374832479 ], [ 67.331149787632626, 26.25386668260137 ], [ 67.313006528328685, 26.276915904645307 ], [ 67.294863268125368, 26.313514083308348 ], [ 67.273696131071631, 26.339261429771227 ], [ 67.257064810192901, 26.358229495095145 ], [ 67.237409611564374, 26.390738938451307 ], [ 67.229849920337585, 26.421885236214735 ], [ 67.222290227312214, 26.44354726569378 ], [ 67.210194721709115, 26.457083966352002 ], [ 67.199611153631906, 26.534212755913984 ], [ 67.190539523080588, 26.54909129722563 ], [ 67.175420139727748, 26.595067313006155 ], [ 67.175420139727748, 26.620751751891873 ], [ 67.18449176937969, 26.645079057152827 ], [ 67.198099215206696, 26.665347852421519 ], [ 67.202635029583007, 26.709926527687173 ], [ 67.201123092057117, 26.750437458721819 ], [ 67.202635029583007, 26.834114296637551 ], [ 67.202635029583007, 26.875929557603058 ], [ 67.202635029583007, 26.906943794420613 ], [ 67.208682783283905, 26.921773679711578 ], [ 67.223802165737425, 26.940645261269822 ], [ 67.231361857863533, 26.974336654812817 ], [ 67.229849920337585, 27.032262268389047 ], [ 67.231361857863533, 27.074004071830529 ], [ 67.213218597660216, 27.107655497703092 ], [ 67.201123092057117, 27.133223817924886 ], [ 67.201123092057117, 27.18434291709201 ], [ 67.201123092057117, 27.235438603308921 ], [ 67.217754412935847, 27.258289611176679 ], [ 67.234385734713953, 27.29054186641406 ], [ 67.231361857863533, 27.372474183237046 ], [ 67.238921549989584, 27.431535280828598 ], [ 67.260088686144002, 27.462395560906486 ], [ 67.288815515323847, 27.483858487679129 ], [ 67.309982650578945, 27.510681265927758 ], [ 67.322078157980684, 27.55224365102373 ], [ 67.341733356609154, 27.565647518218441 ], [ 67.358364677487941, 27.58843033589136 ], [ 67.379531814541679, 27.635321231989337 ], [ 67.402210890020626, 27.643357655631348 ], [ 67.411282519672625, 27.656750382024541 ], [ 67.427913841450675, 27.67951425367994 ], [ 67.427913841450675, 27.72368940224419 ], [ 67.429425779875885, 27.74510121694766 ], [ 67.452104855354833, 27.75045351231978 ], [ 67.4566406697312, 27.781224109305242 ], [ 67.461176485006831, 27.811986003551283 ], [ 67.464200360957932, 27.833380445151477 ], [ 67.482343622060569, 27.838728396798103 ], [ 67.509558511915827, 27.838728396798103 ], [ 67.536773401771143, 27.830706370402709 ], [ 67.583643489355609, 27.825358023953697 ], [ 67.606322564834556, 27.826695135072498 ], [ 67.635049393115082, 27.842739187863287 ], [ 67.656216530168763, 27.857444151026812 ], [ 67.690991111250867, 27.864127566234231 ], [ 67.75902833588907, 27.864127566234231 ], [ 67.804386485947646, 27.861454249613985 ], [ 67.839161067929012, 27.861454249613985 ], [ 67.855792389707062, 27.894865966591112 ], [ 67.863352080933851, 27.906891661421071 ], [ 67.884519217987588, 27.912235986101905 ], [ 67.916269923118534, 27.91891601895918 ], [ 67.958604195427313, 27.929603214117094 ], [ 67.984307147756738, 27.942960723058945 ], [ 68.003962346385208, 27.968335439029318 ], [ 68.017569791312894, 27.985693648643007 ], [ 68.032689174665734, 28.003049065861774 ], [ 68.059904064520993, 28.02307107277187 ], [ 68.103750276154358, 28.051095627661141 ], [ 68.141548734986202, 28.077778890483444 ], [ 68.18085913134388, 28.101788161294678 ], [ 68.214121774000716, 28.133792165875832 ], [ 68.241336663856032, 28.156455889028109 ], [ 68.2670396161854, 28.171118094824294 ], [ 68.291230629190238, 28.187110936620456 ], [ 68.316933580620287, 28.199103997751365 ], [ 68.344148471374922, 28.203101386220055 ], [ 68.381946929307389, 28.20576622762934 ], [ 68.406137942312228, 28.207098624501953 ], [ 68.431840894641653, 28.224418263092446 ], [ 68.443936401144072, 28.248394662783539 ], [ 68.445448339569282, 28.271034091650051 ], [ 68.457543846071701, 28.279023330562325 ], [ 68.46963935347344, 28.304318631000058 ], [ 68.47115129189865, 28.322953426459492 ], [ 68.487782612777437, 28.3269461726278 ], [ 68.499878120179176, 28.338923510012023 ], [ 68.514997502632696, 28.352230077755962 ], [ 68.528604948459645, 28.368195759127047 ], [ 68.56942728234327, 28.373517118720088 ], [ 68.664679397736052, 28.374847417474371 ], [ 68.793194155785727, 28.382828856566505 ], [ 68.855183627622353, 28.382828856566505 ], [ 68.95799543424198, 28.388149483212146 ], [ 69.000329707450078, 28.396129921358806 ], [ 69.08046243949002, 28.400119914702373 ], [ 69.252823409173061, 28.400119914702373 ], [ 69.325396449086895, 28.400119914702373 ], [ 69.36621878386984, 28.400119914702373 ], [ 69.404017242701627, 28.412088995410841 ], [ 69.403261245610054, 28.420067630416838 ], [ 69.419136626054524, 28.420067630416838 ], [ 69.434256009407363, 28.430704874530363 ], [ 69.446351515909782, 28.440011587864547 ], [ 69.462982837687889, 28.455964046503595 ], [ 69.472054467339831, 28.466597683436419 ], [ 69.509852925272355, 28.470585021081888 ], [ 69.556723014655461, 28.470585021081888 ], [ 69.583937904510719, 28.461280999418648 ], [ 69.596033411013138, 28.451976157573654 ], [ 69.612664732791245, 28.433364018734551 ], [ 69.627784116144085, 28.422727041719668 ], [ 69.658022882849821, 28.422727041719668 ], [ 69.682213895854659, 28.421397343712499 ], [ 69.715476539410815, 28.420067630416838 ], [ 69.733619798714813, 28.409429316110106 ], [ 69.747227244541762, 28.39878993340875 ], [ 69.769906320020709, 28.396129921358806 ], [ 69.789561517749917, 28.382828856566505 ], [ 69.789561517749917, 28.35489119147536 ], [ 69.800145085827126, 28.333600414727414 ], [ 69.806192839527966, 28.305649795801514 ], [ 69.807704777953177, 28.276360317474712 ], [ 69.816776407605175, 28.261712556589259 ], [ 69.834919667808492, 28.245730885272167 ], [ 69.839455482184803, 28.217757196037837 ], [ 69.842479359035224, 28.103121852291679 ], [ 69.85911068081333, 28.068440502127544 ], [ 69.878765878542538, 28.05776706389895 ], [ 69.910516584572804, 28.037751512322473 ], [ 69.927147905451534, 28.017732234854805 ], [ 69.945291166554171, 28.005718881421274 ], [ 69.951338919355692, 27.98168815638337 ], [ 69.95889861058248, 27.948303264384208 ], [ 69.981577686061428, 27.930939040104647 ], [ 70.008792575916686, 27.905555538657211 ], [ 70.034495527346792, 27.886848095063613 ], [ 70.054150725975262, 27.877493160081315 ], [ 70.085901431106208, 27.874820173512262 ], [ 70.105556628835416, 27.850760323929876 ], [ 70.111411991470277, 27.833501127874797 ], [ 70.093461122332997, 27.809311401799789 ], [ 70.069270109328158, 27.774535589545849 ], [ 70.043567157898053, 27.74510121604834 ], [ 70.032983588921525, 27.710304882164621 ], [ 70.014840329617584, 27.664785230953669 ], [ 70.002744822215845, 27.629963288874706 ], [ 69.983089624486638, 27.596470200339525 ], [ 69.96041054900769, 27.569668359207469 ], [ 69.936219536002852, 27.548222171516045 ], [ 69.896909139645118, 27.497270694287181 ], [ 69.851550989586542, 27.446295622445064 ], [ 69.827359975682384, 27.416772966099529 ], [ 69.798633147401915, 27.387242416404433 ], [ 69.739667552415654, 27.356361135358156 ], [ 69.686749711130346, 27.303977542629525 ], [ 69.647439313873292, 27.273073057275838 ], [ 69.593009534162718, 27.23006121325443 ], [ 69.561258829031772, 27.185687840621426 ], [ 69.521948432674094, 27.148023858314446 ], [ 69.497757419669256, 27.102271949091232 ], [ 69.496245481244046, 27.060540671314982 ], [ 69.482638036316359, 27.024181417338582 ], [ 69.46600671453831, 26.998588218271721 ], [ 69.455423145561781, 26.919077482539819 ], [ 69.455423145561781, 26.821971488493432 ], [ 69.456935083986991, 26.759887933181631 ], [ 69.485661912267517, 26.734234817682761 ], [ 69.534043939176513, 26.712627705304385 ], [ 69.564282705882249, 26.705874641201774 ], [ 69.594521472587928, 26.684262147280322 ], [ 69.633831868945663, 26.672103317714004 ], [ 69.6549990059994, 26.663996710979461 ], [ 69.688261649555557, 26.638321991966393 ], [ 69.710940724135185, 26.618048398814608 ], [ 69.733619799614132, 26.60047504258921 ], [ 69.76990631912139, 26.580194739595584 ], [ 69.822824161306073, 26.577490427841042 ], [ 69.85608680396291, 26.577490427841042 ], [ 69.919588214224746, 26.573433839699987 ], [ 69.943779227229584, 26.582898987498311 ], [ 69.969482179559009, 26.596419269233934 ], [ 70.011816452767164, 26.604530672052931 ], [ 70.037519404197212, 26.597771210173278 ], [ 70.049614910699631, 26.589659328015614 ], [ 70.07531786212968, 26.573433839699987 ], [ 70.105556628835416, 26.566672541404728 ], [ 70.128235704314363, 26.546386251624256 ], [ 70.137307333966362, 26.523390784756941 ], [ 70.144867026092413, 26.328421139424108 ], [ 70.134283457115885, 26.305382152564334 ], [ 70.119164073763045, 26.274204468461505 ], [ 70.119164073763045, 26.248442670792656 ], [ 70.125211827463943, 26.215893287645144 ], [ 70.117652136237155, 26.184691581751167 ], [ 70.104044691309525, 26.156195769519172 ], [ 70.088925307956629, 26.137194692780895 ], [ 70.06019847877684, 26.089678474681932 ], [ 70.037519404197212, 26.047576560210132 ], [ 70.043567157898053, 26.005459519141539 ], [ 70.05868654125095, 25.986433966454456 ], [ 70.06171041720205, 25.929338835418946 ], [ 70.07682980055489, 25.9035009901786 ], [ 70.088925307956629, 25.883098694149453 ], [ 70.128235704314363, 25.847726362481694 ], [ 70.147890902942891, 25.825953514043476 ], [ 70.169058039097308, 25.805537830706385 ], [ 70.200808744228198, 25.786480018438169 ], [ 70.229535572508723, 25.755164106738164 ], [ 70.241631079011142, 25.737460154562541 ], [ 70.24767883271204, 25.700681981987941 ], [ 70.276405660992509, 25.692507511512474 ], [ 70.429111432047023, 25.687057551564806 ], [ 70.509244164086965, 25.691145044907955 ], [ 70.545530684493542, 25.695232397057509 ], [ 70.562162005372329, 25.707493612640178 ], [ 70.578793327150379, 25.710218155543487 ], [ 70.610544032281325, 25.707493612640178 ], [ 70.625663415634165, 25.695232397057509 ], [ 70.636246983711374, 25.684332478960812 ], [ 70.640782798987061, 25.654352561421604 ], [ 70.642294737412271, 25.606641710246777 ], [ 70.640782798987061, 25.475679959862305 ], [ 70.642294737412271, 25.411511174401255 ], [ 70.649854429538323, 25.380096975794856 ], [ 70.681605133769949, 25.35140730840061 ], [ 70.704284209248897, 25.332277080922609 ], [ 70.716379715751316, 25.304942939165358 ], [ 70.717891654176583, 25.281704068987665 ], [ 70.742082667181421, 25.254358522028213 ], [ 70.767785619510789, 25.22837454864657 ], [ 70.802560200592836, 25.199648959631816 ], [ 70.831287028873362, 25.175021629744492 ], [ 70.869085487705149, 25.146283456516358 ], [ 70.885716809483199, 25.118907475599542 ], [ 70.891764562284777, 25.051810407624259 ], [ 70.893276500709987, 25.020303188541391 ], [ 70.903860068787196, 25.002491181922551 ], [ 70.914443637763725, 24.976453603551022 ], [ 70.918979452140036, 24.939443352828505 ], [ 70.935610773918143, 24.91339243481309 ], [ 70.953754034121459, 24.880478147248766 ], [ 70.97933603033357, 24.841902416063704 ], [ 71.000624122605245, 24.811164918626162 ], [ 71.022879854821497, 24.777784144622615 ], [ 71.027718057242623, 24.760211709303007 ], [ 71.030620978875106, 24.739121505653031 ], [ 71.057714913512484, 24.708358545710382 ], [ 71.066423678410104, 24.665277632856544 ], [ 71.06255311683293, 24.649448252734715 ], [ 71.021912213977544, 24.622181838920767 ], [ 71.005462325026315, 24.609866024597409 ], [ 70.992882998551579, 24.552669579537508 ], [ 70.996088307329558, 24.523346284903198 ], [ 70.996088307329558, 24.499959762233289 ], [ 70.999112184180035, 24.468312248911218 ], [ 71.020279320334396, 24.428397522527689 ], [ 71.05656584074103, 24.424267691800594 ], [ 71.100412052374395, 24.420137725275879 ], [ 71.107971744500446, 24.409123820807736 ], [ 71.106459806075236, 24.389847177405386 ], [ 71.088316545871976, 24.374699179423658 ], [ 71.07470910094429, 24.347152716724565 ], [ 71.055053902315819, 24.337510038257733 ], [ 70.996088307329558, 24.336132453150242 ], [ 70.97492117117514, 24.336132453150242 ], [ 70.940146589193773, 24.320978024116584 ], [ 70.926539144266144, 24.307199699006958 ], [ 70.911419760913304, 24.287907529708775 ], [ 70.900836192836096, 24.261720610817576 ], [ 70.893276500709987, 24.246557296482081 ], [ 70.87362130208146, 24.230013437370303 ], [ 70.850942227501832, 24.213467428878801 ], [ 70.773833372312311, 24.201056511249021 ], [ 70.689164825896057, 24.209330590634295 ], [ 70.621127600358534, 24.210709551704497 ], [ 70.581817204000799, 24.234149603821209 ], [ 70.571233635923591, 24.256206888037525 ], [ 70.574257512774068, 24.286529405907402 ], [ 70.581817204000799, 24.316844684234866 ], [ 70.584841080851277, 24.34302023029943 ], [ 70.580305265575589, 24.378830631628375 ], [ 70.557626190995961, 24.392601164112477 ], [ 70.507732225661755, 24.389847177405386 ], [ 70.453302445951181, 24.36368131434125 ], [ 70.435159185747864, 24.356794660445246 ], [ 70.406432357467395, 24.347152716724565 ], [ 70.388289097264078, 24.340265164405878 ], [ 70.342930947205502, 24.330621961634279 ], [ 70.300596673997347, 24.327866625944068 ], [ 70.276405660992509, 24.31408904907039 ], [ 70.229535572508723, 24.304443855199793 ], [ 70.206856497929095, 24.298931985922479 ], [ 70.185689360875358, 24.286529405907402 ], [ 70.150914778893991, 24.282394942772441 ], [ 70.128235704314363, 24.2782603456385 ], [ 70.114628259386734, 24.260342202830429 ], [ 70.099508876033838, 24.235528295994129 ], [ 70.091949183907786, 24.206572623527791 ], [ 70.0783417389801, 24.176231052621006 ], [ 70.064734294052471, 24.161057560657923 ], [ 70.031471650496314, 24.154159922442545 ], [ 69.727572045913234, 24.158298550337861 ], [ 69.695821340782288, 24.169334234587325 ], [ 69.680701957429449, 24.196919270108253 ], [ 69.641391561071714, 24.22587713692036 ], [ 69.620224424018033, 24.257585340990772 ], [ 69.600569226288826, 24.271369051240754 ], [ 69.582425966085509, 24.26999074757498 ], [ 69.55521107623025, 24.253449936265611 ], [ 69.534043939176513, 24.239664283479954 ], [ 69.502293234045567, 24.238285636273133 ], [ 69.472054467339831, 24.236906973777877 ], [ 69.446351515909782, 24.253449936265611 ], [ 69.393433674624418, 24.256206888037525 ], [ 69.302717374507267, 24.257585340990772 ], [ 69.254335347598271, 24.253449936265611 ], [ 69.242239841095852, 24.238285636273133 ], [ 69.208977197539696, 24.22863468584211 ], [ 69.169666801181961, 24.232770896359852 ], [ 69.133380280775384, 24.236906973777877 ], [ 69.103141514069648, 24.246557296482081 ], [ 69.083486316340498, 24.256206888037525 ], [ 69.05929530243634, 24.246557296482081 ], [ 69.042663980658233, 24.231392174509324 ], [ 69.024520721354236, 24.221740701572173 ], [ 69.007889399576186, 24.217604132224949 ], [ 68.970090940744399, 24.218983003362951 ], [ 68.948923804589981, 24.242421533826757 ], [ 68.941364112463873, 24.263099004415551 ], [ 68.927756667536244, 24.271369051240754 ], [ 68.908101469807036, 24.26447738272509 ], [ 68.896005962405297, 24.250692925138424 ], [ 68.888446271178509, 24.22863468584211 ], [ 68.8778627031013, 24.213467428878801 ], [ 68.85971944289804, 24.209330590634295 ], [ 68.837040367419092, 24.218983003362951 ], [ 68.837040367419092, 24.239664283479954 ], [ 68.838552305844303, 24.260342202830429 ], [ 68.820409045640986, 24.275503872305933 ], [ 68.790170279834626, 24.276882116616434 ], [ 68.75993151312889, 24.276882116616434 ], [ 68.750859882577572, 24.234149603821209 ], [ 68.753883759427993, 24.083782759866551 ], [ 68.75690763627847, 23.969164758646741 ], [ 68.753883759427993, 23.94567618091105 ], [ 68.691894287591367, 23.941530693886477 ], [ 68.539188516536854, 23.94014883520066 ], [ 68.430328956216385, 23.937385073762186 ], [ 68.397066312660229, 23.944294367191333 ], [ 68.395554374235019, 23.958111843386916 ], [ 68.378923052456969, 23.967783195837853 ], [ 68.360779793152972, 23.962256797113525 ], [ 68.339612656099234, 23.941530693886477 ], [ 68.332052964872503, 23.908362004303115 ], [ 68.309373889393555, 23.904215319381535 ], [ 68.285182876388717, 23.901450788123441 ], [ 68.274599307412188, 23.893156841814857 ], [ 68.26855155461061, 23.879332415658496 ], [ 68.247384417556873, 23.869654438801376 ], [ 68.215633712425927, 23.866889169199851 ], [ 68.202026267498297, 23.855827502637169 ], [ 68.194466576271509, 23.848913480572719 ], [ 68.16725168641625, 23.843381997980885 ], [ 68.147596487787723, 23.828169202946412 ], [ 68.117357721082044, 23.825403048411999 ], [ 68.07955926314952, 23.829552257730541 ], [ 68.071999571023412, 23.847530631733321 ], [ 68.058392126095782, 23.848913480572719 ], [ 68.050832434869051, 23.833701334848797 ], [ 68.046296619593363, 23.808804883738446 ], [ 68.046296619593363, 23.756230035787553 ], [ 68.040248865892522, 23.738239025410735 ], [ 68.017569791312894, 23.731318744064822 ], [ 67.988842963032369, 23.741007034347206 ], [ 67.952556442625792, 23.764532740593552 ], [ 67.925341552770476, 23.785287185055608 ], [ 67.902662478190848, 23.803271690636052 ], [ 67.890566970789109, 23.833701334848797 ], [ 67.886031156412798, 23.86412384114243 ], [ 67.866375957784271, 23.866889169199851 ], [ 67.855792389707062, 23.841999089786214 ], [ 67.849744636006221, 23.812954623656992 ], [ 67.843696883204643, 23.789437676807381 ], [ 67.824041684576116, 23.768683894246351 ], [ 67.799850671571278, 23.768683894246351 ], [ 67.75902833588907, 23.779752990108477 ], [ 67.734837322884175, 23.792204597564194 ], [ 67.701574679328019, 23.801888355263429 ], [ 67.663776221395551, 23.803271690636052 ], [ 67.630513577839395, 23.801888355263429 ], [ 67.567012167577502, 23.830935298125553 ], [ 67.518630141567826, 23.86412384114243 ], [ 67.462688422532722, 23.906979790385094 ], [ 67.418842210899356, 23.959493509617801 ], [ 67.373484061740101, 24.02303413931412 ], [ 67.346269170985522, 24.072739694881079 ], [ 67.316030404279786, 24.154159922442545 ], [ 67.302422959352157, 24.22587713692036 ], [ 67.297887144975789, 24.282394942772441 ], [ 67.294863268125368, 24.30857759887715 ], [ 67.278231946347319, 24.330621961634279 ], [ 67.26764837827011, 24.389847177405386 ], [ 67.257064809293581, 24.410500611813859 ], [ 67.231361857863533, 24.444915493755104 ], [ 67.208682783283905, 24.472440637125771 ], [ 67.189027584655378, 24.495832277837394 ], [ 67.16483657165054, 24.531599312058631 ], [ 67.16634851007575, 24.568731218570917 ], [ 67.16483657165054, 24.61959781778512 ], [ 67.16634851007575, 24.64708466622443 ], [ 67.172396262877271, 24.663573872636164 ], [ 67.18297983095448, 24.693798423758324 ], [ 67.172396262877271, 24.717148738823312 ], [ 67.145181373022012, 24.719895547141846 ], [ 67.133085866519593, 24.732255432742079 ], [ 67.096799346113016, 24.759717449101061 ], [ 67.08016802433491, 24.781682692202537 ], [ 67.051441196054384, 24.800899090920382 ], [ 67.025738244624335, 24.785800742710137 ], [ 66.993987539493389, 24.781682692202537 ], [ 66.957701019986132, 24.781682692202537 ], [ 66.925950314855186, 24.796781542234442 ], [ 66.88210410322182, 24.821484785694338 ], [ 66.827674322611927, 24.83520668284217 ], [ 66.77929229660225, 24.83520668284217 ], [ 66.732422208118464, 24.832462425000983 ], [ 66.702183441412728, 24.83520668284217 ], [ 66.67648048998268, 24.853042874029484 ], [ 66.671944674707049, 24.877734893950219 ], [ 66.682528242784258, 24.898307809357959 ], [ 66.68992751384377, 24.914246073097843 ] ] ] } }
]
}
